{
  "type": "FeatureCollection",
  "$comment": "Hand-traced rough Texas state outline. ~35 vertices following the panhandle, southern Plains, Big Bend, Rio Grande border, Gulf coast, Sabine border, and Red River north border. For visual context only — not a survey-grade boundary.",
  "features": [
    {
      "type": "Feature",
      "properties": { "name": "Texas" },
      "geometry": {
        "type": "Polygon",
        "coordinates": [[
          [-103.04, 36.50],
          [-100.00, 36.50],
          [-100.00, 34.56],
          [-99.62, 34.38],
          [-99.18, 34.21],
          [-98.55, 34.13],
          [-97.95, 33.89],
          [-97.10, 33.74],
          [-96.20, 33.65],
          [-95.30, 33.85],
          [-94.45, 33.65],
          [-94.04, 33.55],
          [-94.04, 32.00],
          [-94.04, 31.00],
          [-93.85, 30.30],
          [-93.85, 29.71],
          [-94.70, 29.50],
          [-95.30, 29.10],
          [-95.97, 28.55],
          [-96.55, 28.30],
          [-97.05, 27.85],
          [-97.40, 27.40],
          [-97.40, 26.20],
          [-97.40, 26.00],
          [-97.85, 26.10],
          [-98.55, 26.30],
          [-99.10, 26.50],
          [-99.55, 27.05],
          [-100.10, 27.85],
          [-100.65, 28.65],
          [-101.30, 29.45],
          [-102.30, 29.55],
          [-102.85, 29.20],
          [-103.30, 28.95],
          [-103.95, 29.30],
          [-104.65, 29.85],
          [-104.85, 30.40],
          [-105.45, 30.80],
          [-106.20, 31.40],
          [-106.65, 31.85],
          [-106.65, 32.00],
          [-103.05, 32.00],
          [-103.05, 36.50]
        ]]
      }
    }
  ]
}
