{
  "type": "FeatureCollection",
  "name": "tx-dryline-corridor",
  "description": "Climatological corridor across West Texas where the meteorological dryline most frequently sits. Hand-drawn polygon based on the NWS / SPC climatological dryline distribution; not a forecast of today's dryline position. The dryline marks the boundary where dry continental air meets moist Gulf air and is the engine of West Texas severe-weather events.",
  "features": [
    {
      "type": "Feature",
      "properties": {
        "name": "Climatological dryline corridor",
        "description": "Approximate band where the dryline most frequently sets up across the Texas Panhandle, Llano Estacado, and the eastern South Plains. The actual line varies day-to-day and seasonally; this is the 'most common' corridor."
      },
      "geometry": {
        "type": "Polygon",
        "coordinates": [
          [
            [-102.7, 36.5],
            [-101.4, 36.5],
            [-100.8, 34.5],
            [-100.8, 33.0],
            [-100.5, 31.0],
            [-100.2, 29.5],
            [-100.6, 28.0],
            [-101.4, 28.0],
            [-101.8, 29.5],
            [-102.2, 31.0],
            [-102.5, 33.0],
            [-102.6, 34.5],
            [-102.7, 36.5]
          ]
        ]
      }
    }
  ]
}
