{
  "type": "FeatureCollection",
  "$comment": "Simplified main-stem coordinates for the major Texas rivers. Hand-traced from public OSM data; intended for visual context only — not for spatial analysis. Each LineString is 8-15 vertices and follows roughly the river's centerline within Texas.",
  "features": [
    {
      "type": "Feature",
      "properties": { "name": "Rio Grande", "tier": "main" },
      "geometry": {
        "type": "LineString",
        "coordinates": [
          [-106.46, 31.76], [-106.20, 31.50], [-105.50, 31.10], [-104.85, 30.55],
          [-104.15, 30.10], [-103.30, 29.55], [-102.55, 29.65], [-101.70, 29.78],
          [-101.05, 29.45], [-100.30, 28.90], [-99.45, 27.95], [-98.55, 26.95],
          [-97.80, 26.30], [-97.40, 26.00]
        ]
      }
    },
    {
      "type": "Feature",
      "properties": { "name": "Pecos River", "tier": "main" },
      "geometry": {
        "type": "LineString",
        "coordinates": [
          [-104.20, 32.00], [-104.05, 31.40], [-103.55, 31.05], [-103.05, 30.85],
          [-102.55, 30.45], [-102.10, 30.00], [-101.90, 29.78], [-101.70, 29.65]
        ]
      }
    },
    {
      "type": "Feature",
      "properties": { "name": "Brazos River", "tier": "main" },
      "geometry": {
        "type": "LineString",
        "coordinates": [
          [-101.20, 33.50], [-100.55, 33.20], [-99.40, 32.90], [-98.40, 32.85],
          [-97.85, 32.55], [-97.10, 31.55], [-96.85, 30.95], [-96.30, 30.55],
          [-95.95, 30.05], [-95.85, 29.65], [-95.55, 29.30], [-95.36, 28.93]
        ]
      }
    },
    {
      "type": "Feature",
      "properties": { "name": "Colorado River (TX)", "tier": "main" },
      "geometry": {
        "type": "LineString",
        "coordinates": [
          [-101.85, 32.60], [-100.85, 32.20], [-99.95, 31.80], [-99.20, 31.45],
          [-98.55, 31.05], [-98.10, 30.65], [-97.74, 30.27], [-97.30, 30.10],
          [-96.88, 29.91], [-96.55, 29.55], [-96.05, 29.10], [-95.97, 28.60]
        ]
      }
    },
    {
      "type": "Feature",
      "properties": { "name": "Trinity River", "tier": "main" },
      "geometry": {
        "type": "LineString",
        "coordinates": [
          [-97.32, 33.20], [-97.05, 32.95], [-96.80, 32.78], [-96.45, 32.50],
          [-95.85, 32.10], [-95.50, 31.55], [-95.20, 31.10], [-94.95, 30.50],
          [-94.85, 30.10], [-94.75, 29.75]
        ]
      }
    },
    {
      "type": "Feature",
      "properties": { "name": "Sabine River", "tier": "main" },
      "geometry": {
        "type": "LineString",
        "coordinates": [
          [-95.80, 33.00], [-95.35, 32.65], [-94.80, 32.30], [-94.20, 31.85],
          [-93.85, 31.30], [-93.75, 30.85], [-93.85, 30.30], [-93.85, 29.71]
        ]
      }
    },
    {
      "type": "Feature",
      "properties": { "name": "Neches River", "tier": "main" },
      "geometry": {
        "type": "LineString",
        "coordinates": [
          [-95.55, 32.30], [-95.30, 31.85], [-95.00, 31.40], [-94.65, 30.95],
          [-94.40, 30.55], [-94.20, 30.25], [-94.10, 30.08], [-94.00, 29.90]
        ]
      }
    },
    {
      "type": "Feature",
      "properties": { "name": "San Antonio River", "tier": "main" },
      "geometry": {
        "type": "LineString",
        "coordinates": [
          [-98.49, 29.42], [-98.30, 29.25], [-98.05, 29.05], [-97.75, 28.90],
          [-97.40, 28.75], [-97.05, 28.55], [-96.90, 28.40]
        ]
      }
    },
    {
      "type": "Feature",
      "properties": { "name": "Guadalupe River", "tier": "main" },
      "geometry": {
        "type": "LineString",
        "coordinates": [
          [-99.30, 29.99], [-99.00, 29.85], [-98.55, 29.70], [-98.20, 29.55],
          [-97.85, 29.40], [-97.45, 29.20], [-97.05, 28.95], [-96.80, 28.65]
        ]
      }
    },
    {
      "type": "Feature",
      "properties": { "name": "Nueces River", "tier": "main" },
      "geometry": {
        "type": "LineString",
        "coordinates": [
          [-100.10, 29.65], [-99.85, 29.30], [-99.55, 28.95], [-99.20, 28.65],
          [-98.85, 28.45], [-98.40, 28.20], [-97.95, 28.05], [-97.40, 27.85]
        ]
      }
    },
    {
      "type": "Feature",
      "properties": { "name": "Red River", "tier": "main" },
      "geometry": {
        "type": "LineString",
        "coordinates": [
          [-103.05, 34.65], [-102.10, 34.45], [-101.05, 34.40], [-100.05, 34.35],
          [-99.10, 34.30], [-98.10, 34.10], [-97.05, 33.85], [-96.05, 33.85],
          [-94.95, 33.55], [-94.05, 33.45]
        ]
      }
    },
    {
      "type": "Feature",
      "properties": { "name": "Lavaca River", "tier": "main" },
      "geometry": {
        "type": "LineString",
        "coordinates": [
          [-97.25, 29.55], [-97.05, 29.40], [-96.85, 29.20], [-96.65, 29.00],
          [-96.55, 28.85], [-96.55, 28.65]
        ]
      }
    }
  ]
}
